GLOBALSTAR M084         
1 38040U 11080A   25015.74042345 -.00000115  00000+0 -62207-4 0  9996
2 38040  51.9993 152.5754 0001249  98.3277  50.5011 12.62273483603418
GLOBALSTAR M080         
1 38041U 11080B   25015.79353858 -.00000127  00000+0 -12819-3 0  9992
2 38041  52.0044 153.9708 0001269  83.6835  64.2126 12.62260401603540
GLOBALSTAR M082         
1 38042U 11080C   25015.64787513 -.00000088  00000+0  88593-4 0  9994
2 38042  52.0075 109.8418 0000856 153.3279 354.1031 12.62272024604238
GLOBALSTAR M092         
1 38043U 11080D   25015.94192772 -.00000099  00000+0  28967-4 0  9996
2 38043  52.0054 199.3154 0001155  93.5132  70.8043 12.62272176602931
GLOBALSTAR M090         
1 38044U 11080E   25015.59331174 -.00000091  00000+0  72360-4 0  9997
2 38044  51.9885 104.0131 0000648 135.2223   3.7975 12.62265595604344
GLOBALSTAR M086         
1 38045U 11080F   25015.70323441 -.00000093  00000+0  61485-4 0  9997
2 38045  51.9899 104.2172 0000595  37.4828 121.7369 12.62265594604305
GLOBALSTAR M097         
1 39072U 13005A   25015.93250356 -.00000093  00000+0  59880-4 0  9992
2 39072  52.0064  17.9126 0000120  42.5988 317.4888 12.62268956551585
GLOBALSTAR M093         
1 39073U 13005B   25015.90547523 -.00000080  00000+0  13134-3 0  9992
2 39073  51.9831  11.5371 0000152   1.3577 358.7290 12.62271979551539
